CCSDS_OMM_VERS = 2.0
CREATION_DATE  = 
ORIGINATOR     = 

OBJECT_NAME    = UNKNOWN
OBJECT_ID      = 
CENTER_NAME    = EARTH
REF_FRAME      = TEME
TIME_SYSTEM    = UTC
MEAN_ELEMENT_THEORY = SGP/SGP4

EPOCH          = 2026-01-19T11:17:53.607840
MEAN_MOTION    = 13.83540829
ECCENTRICITY   = .056419
INCLINATION    = 65.7728
RA_OF_ASC_NODE = 294.0545
ARG_OF_PERICENTER = 289.6626
MEAN_ANOMALY   = 64.4412

EPHEMERIS_TYPE = 0
CLASSIFICATION_TYPE = U
NORAD_CAT_ID   = 81052
ELEMENT_SET_NO = 999
REV_AT_EPOCH   = 60553
BSTAR          = .18055E-2
MEAN_MOTION_DOT = .6902E-4
MEAN_MOTION_DDOT = 0

CCSDS_OMM_VERS = 2.0
CREATION_DATE  = 
ORIGINATOR     = 

OBJECT_NAME    = UNKNOWN
OBJECT_ID      = 
CENTER_NAME    = EARTH
REF_FRAME      = TEME
TIME_SYSTEM    = UTC
MEAN_ELEMENT_THEORY = SGP/SGP4

EPOCH          = 2026-01-19T16:58:38.857152
MEAN_MOTION    = 13.60794470
ECCENTRICITY   = .0067122
INCLINATION    = 100.3848
RA_OF_ASC_NODE = 288.1260
ARG_OF_PERICENTER = 312.3314
MEAN_ANOMALY   = 47.2149

EPHEMERIS_TYPE = 0
CLASSIFICATION_TYPE = U
NORAD_CAT_ID   = 81069
ELEMENT_SET_NO = 999
REV_AT_EPOCH   = 52109
BSTAR          = .42775E-2
MEAN_MOTION_DOT = .3232E-4
MEAN_MOTION_DDOT = 0

CCSDS_OMM_VERS = 2.0
CREATION_DATE  = 
ORIGINATOR     = 

OBJECT_NAME    = UNKNOWN
OBJECT_ID      = 
CENTER_NAME    = EARTH
REF_FRAME      = TEME
TIME_SYSTEM    = UTC
MEAN_ELEMENT_THEORY = SGP/SGP4

EPOCH          = 2026-01-18T21:26:38.894208
MEAN_MOTION    = 7.56624551
ECCENTRICITY   = .3854086
INCLINATION    = 62.8984
RA_OF_ASC_NODE = 344.3687
ARG_OF_PERICENTER = 358.6537
MEAN_ANOMALY   = 0.5852

EPHEMERIS_TYPE = 0
CLASSIFICATION_TYPE = U
NORAD_CAT_ID   = 81111
ELEMENT_SET_NO = 999
REV_AT_EPOCH   = 27475
BSTAR          = .43254E-2
MEAN_MOTION_DOT = .20389E-3
MEAN_MOTION_DDOT = 0

CCSDS_OMM_VERS = 2.0
CREATION_DATE  = 
ORIGINATOR     = 

OBJECT_NAME    = UNKNOWN
OBJECT_ID      = 
CENTER_NAME    = EARTH
REF_FRAME      = TEME
TIME_SYSTEM    = UTC
MEAN_ELEMENT_THEORY = SGP/SGP4

EPOCH          = 2026-01-18T11:18:49.061952
MEAN_MOTION    = 13.81680240
ECCENTRICITY   = .0001991
INCLINATION    = 99.9701
RA_OF_ASC_NODE = 107.1427
ARG_OF_PERICENTER = 315.0243
MEAN_ANOMALY   = 45.0747

EPHEMERIS_TYPE = 0
CLASSIFICATION_TYPE = U
NORAD_CAT_ID   = 81123
ELEMENT_SET_NO = 999
REV_AT_EPOCH   = 61135
BSTAR          = .92419E-3
MEAN_MOTION_DOT = .938E-5
MEAN_MOTION_DDOT = 0

CCSDS_OMM_VERS = 2.0
CREATION_DATE  = 
ORIGINATOR     = 

OBJECT_NAME    = UNKNOWN
OBJECT_ID      = 
CENTER_NAME    = EARTH
REF_FRAME      = TEME
TIME_SYSTEM    = UTC
MEAN_ELEMENT_THEORY = SGP/SGP4

EPOCH          = 2026-01-19T16:54:42.001056
MEAN_MOTION    = 12.92993290
ECCENTRICITY   = .0024397
INCLINATION    = 90.2491
RA_OF_ASC_NODE = 4.8782
ARG_OF_PERICENTER = 292.0102
MEAN_ANOMALY   = 67.8424

EPHEMERIS_TYPE = 0
CLASSIFICATION_TYPE = U
NORAD_CAT_ID   = 81134
ELEMENT_SET_NO = 999
REV_AT_EPOCH   = 46751
BSTAR          = .85976E-3
MEAN_MOTION_DOT = .242E-5
MEAN_MOTION_DDOT = 0

CCSDS_OMM_VERS = 2.0
CREATION_DATE  = 
ORIGINATOR     = 

OBJECT_NAME    = UNKNOWN
OBJECT_ID      = 
CENTER_NAME    = EARTH
REF_FRAME      = TEME
TIME_SYSTEM    = UTC
MEAN_ELEMENT_THEORY = SGP/SGP4

EPOCH          = 2026-01-16T07:27:00.407232
MEAN_MOTION    = 13.75682856
ECCENTRICITY   = .0062179
INCLINATION    = 100.4168
RA_OF_ASC_NODE = 226.5127
ARG_OF_PERICENTER = 196.2360
MEAN_ANOMALY   = 163.6795

EPHEMERIS_TYPE = 0
CLASSIFICATION_TYPE = U
NORAD_CAT_ID   = 81161
ELEMENT_SET_NO = 999
REV_AT_EPOCH   = 56088
BSTAR          = .37583E-3
MEAN_MOTION_DOT = .316E-5
MEAN_MOTION_DDOT = 0

CCSDS_OMM_VERS = 2.0
CREATION_DATE  = 
ORIGINATOR     = 

OBJECT_NAME    = UNKNOWN
OBJECT_ID      = 
CENTER_NAME    = EARTH
REF_FRAME      = TEME
TIME_SYSTEM    = UTC
MEAN_ELEMENT_THEORY = SGP/SGP4

EPOCH          = 2026-01-20T14:08:41.050464
MEAN_MOTION    = 13.81825191
ECCENTRICITY   = .002257
INCLINATION    = 82.9283
RA_OF_ASC_NODE = 336.9586
ARG_OF_PERICENTER = 103.3117
MEAN_ANOMALY   = 257.0561

EPHEMERIS_TYPE = 0
CLASSIFICATION_TYPE = U
NORAD_CAT_ID   = 81219
ELEMENT_SET_NO = 999
REV_AT_EPOCH   = 61288
BSTAR          = .73863E-3
MEAN_MOTION_DOT = .808E-5
MEAN_MOTION_DDOT = 0

CCSDS_OMM_VERS = 2.0
CREATION_DATE  = 
ORIGINATOR     = 

OBJECT_NAME    = UNKNOWN
OBJECT_ID      = 
CENTER_NAME    = EARTH
REF_FRAME      = TEME
TIME_SYSTEM    = UTC
MEAN_ELEMENT_THEORY = SGP/SGP4

EPOCH          = 2026-01-20T03:07:51.477024
MEAN_MOTION    = 14.41319540
ECCENTRICITY   = .0064197
INCLINATION    = 70.5182
RA_OF_ASC_NODE = 190.5486
ARG_OF_PERICENTER = 304.4660
MEAN_ANOMALY   = 55.0417

EPHEMERIS_TYPE = 0
CLASSIFICATION_TYPE = U
NORAD_CAT_ID   = 81228
ELEMENT_SET_NO = 999
REV_AT_EPOCH   = 63162
BSTAR          = .24573E-2
MEAN_MOTION_DOT = .8107E-4
MEAN_MOTION_DDOT = 0

CCSDS_OMM_VERS = 2.0
CREATION_DATE  = 
ORIGINATOR     = 

OBJECT_NAME    = UNKNOWN
OBJECT_ID      = 
CENTER_NAME    = EARTH
REF_FRAME      = TEME
TIME_SYSTEM    = UTC
MEAN_ELEMENT_THEORY = SGP/SGP4

EPOCH          = 2026-01-19T15:32:08.248416
MEAN_MOTION    = 14.01798044
ECCENTRICITY   = .0070983
INCLINATION    = 100.3851
RA_OF_ASC_NODE = 91.9334
ARG_OF_PERICENTER = 329.9976
MEAN_ANOMALY   = 29.7126

EPHEMERIS_TYPE = 0
CLASSIFICATION_TYPE = U
NORAD_CAT_ID   = 81254
ELEMENT_SET_NO = 999
REV_AT_EPOCH   = 61820
BSTAR          = .24167E-2
MEAN_MOTION_DOT = .37E-4
MEAN_MOTION_DDOT = 0

CCSDS_OMM_VERS = 2.0
CREATION_DATE  = 
ORIGINATOR     = 

OBJECT_NAME    = UNKNOWN
OBJECT_ID      = 
CENTER_NAME    = EARTH
REF_FRAME      = TEME
TIME_SYSTEM    = UTC
MEAN_ELEMENT_THEORY = SGP/SGP4

EPOCH          = 2026-01-19T14:44:21.322752
MEAN_MOTION    = 14.20037225
ECCENTRICITY   = .0206071
INCLINATION    = 98.1245
RA_OF_ASC_NODE = 80.9965
ARG_OF_PERICENTER = 274.0113
MEAN_ANOMALY   = 83.7534

EPHEMERIS_TYPE = 0
CLASSIFICATION_TYPE = U
NORAD_CAT_ID   = 81279
ELEMENT_SET_NO = 999
REV_AT_EPOCH   = 46797
BSTAR          = .4311E-3
MEAN_MOTION_DOT = .1092E-4
MEAN_MOTION_DDOT = 0

CCSDS_OMM_VERS = 2.0
CREATION_DATE  = 
ORIGINATOR     = 

OBJECT_NAME    = UNKNOWN
OBJECT_ID      = 
CENTER_NAME    = EARTH
REF_FRAME      = TEME
TIME_SYSTEM    = UTC
MEAN_ELEMENT_THEORY = SGP/SGP4

EPOCH          = 2026-01-16T07:25:49.553184
MEAN_MOTION    = 13.76726433
ECCENTRICITY   = .0091031
INCLINATION    = 66.7561
RA_OF_ASC_NODE = 213.3012
ARG_OF_PERICENTER = 209.6336
MEAN_ANOMALY   = 326.2117

EPHEMERIS_TYPE = 0
CLASSIFICATION_TYPE = U
NORAD_CAT_ID   = 81301
ELEMENT_SET_NO = 999
REV_AT_EPOCH   = 61111
BSTAR          = .26992E-3
MEAN_MOTION_DOT = .199E-5
MEAN_MOTION_DDOT = 0

CCSDS_OMM_VERS = 2.0
CREATION_DATE  = 
ORIGINATOR     = 

OBJECT_NAME    = UNKNOWN
OBJECT_ID      = 
CENTER_NAME    = EARTH
REF_FRAME      = TEME
TIME_SYSTEM    = UTC
MEAN_ELEMENT_THEORY = SGP/SGP4

EPOCH          = 2026-01-16T22:41:54.877920
MEAN_MOTION    = 14.56594439
ECCENTRICITY   = .0131514
INCLINATION    = 98.7270
RA_OF_ASC_NODE = 80.8740
ARG_OF_PERICENTER = 17.5362
MEAN_ANOMALY   = 155.9730

EPHEMERIS_TYPE = 0
CLASSIFICATION_TYPE = U
NORAD_CAT_ID   = 81311
ELEMENT_SET_NO = 999
REV_AT_EPOCH   = 64471
BSTAR          = .98845E-4
MEAN_MOTION_DOT = .437E-5
MEAN_MOTION_DDOT = 0

