UNKNOWN                 
1 81052U          26019.47075935  .00006902  00000+0  18055-2 0  9991
2 81052  65.7728 294.0545 0564190 289.6626  64.4412 13.83540829605539
UNKNOWN                 
1 81069U          26019.70739418  .00003232  00000+0  42775-2 0  9997
2 81069 100.3848 288.1260 0067122 312.3314  47.2149 13.60794470521097
UNKNOWN                 
1 81111U          26018.89350572  .00020389  00000+0  43254-2 0  9999
2 81111  62.8984 344.3687 3854086 358.6537   0.5852  7.56624551274753
UNKNOWN                 
1 81123U          26018.47140118  .00000938  00000+0  92419-3 0  9995
2 81123  99.9701 107.1427 0001991 315.0243  45.0747 13.81680240611358
UNKNOWN                 
1 81134U          26019.70465279  .00000242  00000+0  85976-3 0  9990
2 81134  90.2491   4.8782 0024397 292.0102  67.8424 12.92993290467514
UNKNOWN                 
1 81161U          26016.31042138  .00000316  00000+0  37583-3 0  9992
2 81161 100.4168 226.5127 0062179 196.2360 163.6795 13.75682856560881
UNKNOWN                 
1 81219U          26020.58936401  .00000808  00000+0  73863-3 0  9992
2 81219  82.9283 336.9586 0022570 103.3117 257.0561 13.81825191612887
UNKNOWN                 
1 81228U          26020.13045691  .00008107  00000+0  24573-2 0  9998
2 81228  70.5182 190.5486 0064197 304.4660  55.0417 14.41319540631621
UNKNOWN                 
1 81254U          26019.64731769  .00003700  00000+0  24167-2 0  9992
2 81254 100.3851  91.9334 0070983 329.9976  29.7126 14.01798044618203
UNKNOWN                 
1 81279U          26019.61413568  .00001092  00000+0  43110-3 0  9992
2 81279  98.1245  80.9965 0206071 274.0113  83.7534 14.20037225467978
UNKNOWN                 
1 81301U          26016.30960131  .00000199  00000+0  26992-3 0  9990
2 81301  66.7561 213.3012 0091031 209.6336 326.2117 13.76726433611115
UNKNOWN                 
1 81311U          26016.94577405  .00000437  00000+0  98845-4 0  9991
2 81311  98.7270  80.8740 0131514  17.5362 155.9730 14.56594439644717
